NORAD_CAT_ID,OBJECT_NAME,OBJECT_TYPE,EPOCH,MEAN_MOTION,ECCENTRICITY,INCLINATION,RA_OF_ASC_NODE,ARG_OF_PERICENTER,MEAN_ANOMALY,BSTAR,MEAN_MOTION_DOT,MEAN_MOTION_DDOT,TLE_LINE0,TLE_LINE1,TLE_LINE2,SEMIMAJOR_AXIS,PERIOD,APOGEE,PERIGEE,DECAYED
51467.0,STARLINK-3178,PAYLOAD,2022-05-23 14:00:01,15.08807047,0.0002007,53.2173,21.5961,39.1455,246.6908,0.0038513,0.00061485,0.0,0 STARLINK-3178,1 51467U 22010M   22143.58334491  .00061485  00000-0  38513-2 0  9993,2 51467  53.2173  21.5961 0002007  39.1455 246.6908 15.08807047  1305,6917.981,95.44,541.235,538.4580000000002,0.0
51467.0,STARLINK-3178,PAYLOAD,2022-05-23 22:00:01,15.08860683,0.0002158,53.2175,20.1014,36.2175,261.2623,-0.002428,-0.00038745,0.0,0 STARLINK-3178,1 51467U 22010M   22143.91668981 -.00038745  00000-0 -24280-2 0  9995,2 51467  53.2175  20.1014 0002158  36.2175 261.2623 15.08860683  1307,6917.816999999999,95.436,541.175,538.189,0.0
51467.0,STARLINK-3178,PAYLOAD,2022-05-24 06:00:02,15.0883975,0.0002133,53.2174,18.6048,33.019,276.0581,-0.00051075,-8.408e-05,0.0,0 STARLINK-3178,1 51467U 22010M   22144.25002315 -.00008408  00000-0 -51075-3 0  9992,2 51467  53.2174  18.6048 0002133  33.0190 276.0581 15.08839750 18159,6917.880999999999,95.438,541.222,538.271,0.0
51467.0,STARLINK-3178,PAYLOAD,2022-05-24 14:00:01,15.08833962,0.0002006,53.2179,17.1071,38.7214,281.8831,0.0004753,7.283e-05,0.0,0 STARLINK-3178,1 51467U 22010M   22144.58334491  .00007283  00000-0  47530-3 0  9990,2 51467  53.2179  17.1071 0002006  38.7214 281.8831 15.08833962  1302,6917.899,95.438,541.1519999999998,538.376,0.0
51467.0,STARLINK-3178,PAYLOAD,2022-05-24 22:00:00,15.08824718,0.0002257,53.2179,15.6125,37.7363,294.4618,0.00033815,5.095e-05,0.0,0 STARLINK-3178,1 51467U 22010M   22144.91667824  .00005095  00000-0  33815-3 0  9996,2 51467  53.2179  15.6125 0002257  37.7363 294.4618 15.08824718  1309,6917.927,95.439,541.3530000000002,538.231,0.0
51467.0,STARLINK-3178,PAYLOAD,2022-05-25 14:00:01,15.08806618,0.0001991,53.2181,12.6183,39.3424,316.026,0.0034288,0.00054655,0.0,0 STARLINK-3178,1 51467U 22010M   22145.58334491  .00054655  00000-0  34288-2 0  9991,2 51467  53.2181  12.6183 0001991  39.3424 316.0260 15.08806618 18360,6917.982,95.44,541.225,538.47,0.0
51467.0,STARLINK-3178,PAYLOAD,2022-05-25 20:22:49,15.08832483,0.0001949,53.2188,11.4247,47.1506,312.9649,1.7789000000000002e-05,-5e-08,0.0,0 STARLINK-3178,1 51467U 22010M   22145.84918077 -.00000005  00000-0  17789-4 0  9998,2 51467  53.2188  11.4247 0001949  47.1506 312.9649 15.08832483 17607,6917.903,95.438,541.117,538.42,0.0
51467.0,STARLINK-3178,PAYLOAD,2022-05-26 06:00:00,15.08844554,0.0002104,53.2178,9.6268,33.8213,344.717,-0.0019026,-0.00030445,0.0,0 STARLINK-3178,1 51467U 22010M   22146.25001157 -.00030445  00000-0 -19026-2 0  9992,2 51467  53.2178   9.6268 0002104  33.8213 344.7170 15.08844554 18468,6917.866,95.437,541.187,538.276,0.0
51467.0,STARLINK-3178,PAYLOAD,2022-05-26 07:30:31,15.08836538,0.0002164,53.2191,9.3443,42.7711,317.3449,2.8563e-05,1.66e-06,0.0,0 STARLINK-3178,1 51467U 22010M   22146.31286025  .00000166  00000-0  28563-4 0  9991,2 51467  53.2191   9.3443 0002164  42.7711 317.3449 15.08836538 17673,6917.891,95.438,541.253,538.259,0.0
51467.0,STARLINK-3178,PAYLOAD,2022-05-26 21:48:59,15.0883867,0.0002037,53.2192,6.6691,45.8673,314.2486,-4.629600000000001e-05,-1.025e-05,0.0,0 STARLINK-3178,1 51467U 22010M   22146.90902345 -.00001025  00000-0 -46296-4 0  9996,2 51467  53.2192   6.6691 0002037  45.8673 314.2486 15.08838670 17765,6917.884,95.438,541.159,538.34,0.0
51467.0,STARLINK-3178,PAYLOAD,2022-05-26 22:00:00,15.08845495,0.0002084,53.2178,6.6351,33.6503,8.0696,-0.0022994,-0.00036704,0.0,0 STARLINK-3178,1 51467U 22010M   22146.91667824 -.00036704  00000-0 -22994-2 0  9996,2 51467  53.2178   6.6351 0002084  33.6503   8.0696 15.08845495 18564,6917.864000000001,95.437,541.17,538.2869999999998,0.0
51467.0,STARLINK-3178,PAYLOAD,2022-05-27 14:00:01,15.08823787,0.0001863,53.2175,3.6408,37.4018,27.4779,0.0021471,0.00034034,0.0,0 STARLINK-3178,1 51467U 22010M   22147.58334491  .00034034  00000-0  21471-2 0  9992,2 51467  53.2175   3.6408 0001863  37.4018  27.4779 15.08823787  1309,6917.93,95.439,541.0840000000002,538.506,0.0
51467.0,STARLINK-3178,PAYLOAD,2022-05-27 16:00:00,15.08844495,0.0001885,53.2176,3.2671,37.2225,120.5479,-0.00012647,-2.301e-05,0.0,0 STARLINK-3178,1 51467U 22010M   22147.66667824 -.00002301  00000-0 -12647-3 0  9990,2 51467  53.2176   3.2671 0001885  37.2225 120.5479 15.08844495 18679,6917.8669999999975,95.437,541.036,538.428,0.0
51467.0,STARLINK-3178,PAYLOAD,2022-05-27 21:39:47,15.08833485,0.000224,53.2188,2.2061,37.301,322.8137,2.8846e-05,1.71e-06,0.0,0 STARLINK-3178,1 51467U 22010M   22147.90263029  .00000171  00000-0  28846-4 0  9996,2 51467  53.2188   2.2061 0002240  37.3010 322.8137 15.08833485 17914,6917.9,95.438,541.315,538.216,0.0
51467.0,STARLINK-3178,PAYLOAD,2022-05-28 14:00:01,15.08833846,0.0001981,53.2169,359.1517,41.9178,57.7518,0.0020242,0.00032069,0.0,0 STARLINK-3178,1 51467U 22010M   22148.58334491  .00032069  00000-0  20242-2 0  9994,2 51467  53.2169 359.1517 0001981  41.9178  57.7518 15.08833846  1304,6917.899,95.438,541.135,538.394,0.0
51467.0,STARLINK-3178,PAYLOAD,2022-05-28 19:55:10,15.0883552,0.0002316,53.2191,358.0433,40.4054,319.711,8.867e-05,1.123e-05,0.0,0 STARLINK-3178,1 51467U 22010M   22148.82998747  .00001123  00000-0  88670-4 0  9999,2 51467  53.2191 358.0433 0002316  40.4054 319.7110 15.08835520 18852,6917.894,95.438,541.361,538.1569999999998,0.0
51467.0,STARLINK-3178,PAYLOAD,2022-05-29 13:24:25,15.08834698,0.0002258,53.2184,354.7729,40.7143,319.4017,7.5552e-05,9.14e-06,0.0,0 STARLINK-3178,1 51467U 22010M   22149.55862997  .00000914  00000-0  75552-4 0  9999,2 51467  53.2184 354.7729 0002258  40.7143 319.4017 15.08834698 18164,6917.897,95.438,541.3240000000002,538.2,0.0
51467.0,STARLINK-3178,PAYLOAD,2022-05-29 21:21:21,15.08842459,0.0002181,53.2188,353.2866,39.547,320.5681,1.1837e-05,-1e-06,0.0,0 STARLINK-3178,1 51467U 22010M   22149.88982747 -.00000100  00000-0  11837-4 0  9995,2 51467  53.2188 353.2866 0002181  39.5470 320.5681 15.08842459 18218,6917.873000000001,95.437,541.247,538.229,0.0
51467.0,STARLINK-3178,PAYLOAD,2022-05-29 22:00:00,15.08804205,0.0002279,53.2165,353.168,39.5325,106.5124,0.0014418,0.00022711,0.0,0 STARLINK-3178,1 51467U 22010M   22149.91667824  .00022711  00000-0  14418-2 0  9992,2 51467  53.2165 353.1680 0002279  39.5325 106.5124 15.08804205 19013,6917.99,95.44,541.431,538.278,0.0
51467.0,STARLINK-3178,PAYLOAD,2022-05-30 14:00:01,15.08834268,0.0002178,53.2167,350.1732,44.8018,124.3785,0.00081307,0.00012674,0.0,0 STARLINK-3178,1 51467U 22010M   22150.58334491  .00012674  00000-0  81307-3 0  9997,2 51467  53.2167 350.1732 0002178  44.8018 124.3785 15.08834268  1302,6917.898,95.438,541.27,538.256,0.0
51467.0,STARLINK-3178,PAYLOAD,2022-05-30 22:00:00,15.08823096,0.0002392,53.2167,348.6785,40.6582,140.1184,0.001845,0.00029184,0.0,0 STARLINK-3178,1 51467U 22010M   22150.91667824  .00029184  00000-0  18450-2 0  9995,2 51467  53.2167 348.6785 0002392  40.6582 140.1184 15.08823096 19169,6917.932,95.439,541.452,538.1419999999998,0.0
51467.0,STARLINK-3178,PAYLOAD,2022-05-31 06:00:02,15.08856274,0.0002259,53.2168,347.1807,41.6924,150.7336,-0.0011710999999999,-0.00018887,0.0,0 STARLINK-3178,1 51467U 22010M   22151.25002315 -.00018887  00000-0 -11711-2 0  9994,2 51467  53.2168 347.1807 0002259  41.6924 150.7336 15.08856274  1309,6917.831,95.437,541.258,538.133,0.0
51467.0,STARLINK-3178,PAYLOAD,2022-05-31 22:00:00,15.0881637,0.0002384,53.2172,344.1892,39.3425,176.237,0.0024146,0.00038326,0.0,0 STARLINK-3178,1 51467U 22010M   22151.91667824  .00038326  00000-0  24146-2 0  9993,2 51467  53.2172 344.1892 0002384  39.3425 176.2370 15.08816370 19318,6917.953,95.439,541.467,538.168,0.0
51467.0,STARLINK-3178,PAYLOAD,2022-06-01 14:00:01,15.08863919,0.0002186,53.2175,341.1947,44.6728,194.0806,-0.0012890999999999,-0.0002076,0.0,0 STARLINK-3178,1 51467U 22010M   22152.58334491 -.00020760  00000-0 -12891-2 0  9997,2 51467  53.2175 341.1947 0002186  44.6728 194.0806 15.08863919 19418,6917.807,95.436,541.185,538.16,0.0
51467.0,STARLINK-3178,PAYLOAD,2022-06-01 20:00:01,15.08847084,0.0002325,53.2174,340.0737,40.1684,117.3013,-0.0019442,-0.00031104,0.0,0 STARLINK-3178,1 51467U 22010M   22152.83334491 -.00031104  00000-0 -19442-2 0  9998,2 51467  53.2174 340.0737 0002325  40.1684 117.3013 15.08847084  1301,6917.859,95.437,541.332,538.115,0.0
51467.0,STARLINK-3178,PAYLOAD,2022-06-02 19:09:06,15.0883983,0.0002388,53.2169,335.7427,48.8361,311.2836,-5.1268e-05,-1.104e-05,0.0,0 STARLINK-3178,1 51467U 22010M   22153.79799570 -.00001104  00000-0 -51268-4 0  9998,2 51467  53.2169 335.7427 0002388  48.8361 311.2836 15.08839830 19608,6917.880999999999,95.438,541.398,538.094,0.0
51467.0,STARLINK-3178,PAYLOAD,2022-06-03 11:02:58,15.08828468,0.0002234,53.2174,332.7686,46.7784,313.3394,0.00026057,3.86e-05,0.0,0 STARLINK-3178,1 51467U 22010M   22154.46039425  .00003860  00000-0  26057-3 0  9995,2 51467  53.2174 332.7686 0002234  46.7784 313.3394 15.08828468 18903,6917.916,95.438,541.326,538.235,0.0
51467.0,STARLINK-3178,PAYLOAD,2022-06-03 15:49:06,15.08847455,0.0002244,53.2181,331.8765,45.1745,314.9429,3.8267e-05,3.21e-06,0.0,0 STARLINK-3178,1 51467U 22010M   22154.65910724  .00000321  00000-0  38267-4 0  9992,2 51467  53.2181 331.8765 0002244  45.1745 314.9429 15.08847455 19735,6917.858,95.437,541.275,538.17,0.0
51467.0,STARLINK-3178,PAYLOAD,2022-06-03 22:10:39,15.08841155,0.0002508,53.2179,330.6876,38.2668,321.8502,-5.7426e-06,-3.8e-06,0.0,0 STARLINK-3178,1 51467U 22010M   22154.92407237 -.00000380  00000-0 -57426-5 0  9998,2 51467  53.2179 330.6876 0002508  38.2668 321.8502 15.08841155 19776,6917.877,95.437,541.477,538.007,0.0
